[{"OBJECT_NAME":"GJZ 05","OBJECT_ID":"2024-238E","EPOCH":"2026-03-09T22:58:46.488864","MEAN_MOTION":13.75189396,"ECCENTRICITY":0.0008393,"INCLINATION":59.9108,"RA_OF_ASC_NODE":211.3299,"ARG_OF_PERICENTER":266.3765,"MEAN_ANOMALY":93.6283,"EPHEMERIS_TYPE":0,"CLASSIFICATION_TYPE":"U","NORAD_CAT_ID":62294,"ELEMENT_SET_NO":999,"REV_AT_EPOCH":6226,"BSTAR":9.3425993e-5,"MEAN_MOTION_DOT":-2.9e-7,"MEAN_MOTION_DDOT":0},{"OBJECT_NAME":"SL-8 R\/B","OBJECT_ID":"1976-070B","EPOCH":"2026-03-09T23:03:10.940256","MEAN_MOTION":13.76452874,"ECCENTRICITY":0.00141742,"INCLINATION":82.9825,"RA_OF_ASC_NODE":81.8417,"ARG_OF_PERICENTER":11.1994,"MEAN_ANOMALY":53.2331,"EPHEMERIS_TYPE":0,"CLASSIFICATION_TYPE":"U","NORAD_CAT_ID":9044,"ELEMENT_SET_NO":999,"REV_AT_EPOCH":49200,"BSTAR":-3.0418227e-5,"MEAN_MOTION_DOT":-1.4e-7,"MEAN_MOTION_DDOT":0}]
